[{"OBJECT_NAME":"STARLINK-34641","OBJECT_ID":"2025-150H","EPOCH":"2026-03-09T14:17:11.372064","MEAN_MOTION":14.98334402,"ECCENTRICITY":0.0003474,"INCLINATION":70.0015,"RA_OF_ASC_NODE":134.6559,"ARG_OF_PERICENTER":269.7987,"MEAN_ANOMALY":90.2774,"EPHEMERIS_TYPE":0,"CLASSIFICATION_TYPE":"U","NORAD_CAT_ID":64797,"ELEMENT_SET_NO":999,"REV_AT_EPOCH":3733,"BSTAR":0.00031486,"MEAN_MOTION_DOT":3.666e-5,"MEAN_MOTION_DDOT":0},{"OBJECT_NAME":"FENGYUN 1C DEB","OBJECT_ID":"1999-025BTY","EPOCH":"2026-03-09T14:49:03.533664","MEAN_MOTION":15.05418076,"ECCENTRICITY":0.0035944,"INCLINATION":98.8793,"RA_OF_ASC_NODE":298.6402,"ARG_OF_PERICENTER":319.4464,"MEAN_ANOMALY":105.3063,"EPHEMERIS_TYPE":0,"CLASSIFICATION_TYPE":"U","NORAD_CAT_ID":31436,"ELEMENT_SET_NO":999,"REV_AT_EPOCH":98178,"BSTAR":0.0045436,"MEAN_MOTION_DOT":0.00066638,"MEAN_MOTION_DDOT":0}]
